1 08820U 76039A   03097.80323181  .00000002  00000-0  10000-3 0  9343
2 08820 109.8087 157.5085 0044666 316.5857  43.1381  6.38664472372564
